COSMOS 2251 DEB         
1 37124U 93036BGW 17345.10746576  .00001729  00000-0  48752-3 0  9992
2 37124  74.0139 265.4323 0085357 347.2355  12.6639 14.44416917427073
